QIANFAN-17              
1 60395U 24140S   25210.82471908  .00000146  00000+0  20747-3 0  9996
2 60395  88.9857 313.4622 0013601 232.3745 127.6172 13.50960288 49784
QIANFAN-18              
1 60396U 24140T   25210.80425300  .00000142  00000+0  20202-3 0  9992
2 60396  88.9850 313.0085 0013484 213.4655 146.5645 13.50955762 49175
QIANFAN-19              
1 61552U 24185A   25210.80315522  .00000369  00000+0  18637-3 0  9990
2 61552  88.9810  93.5375 0008587  35.9986 324.1777 14.14113083 50456
QIANFAN-20              
1 61553U 24185B   25210.87842885  .00000320  00000+0  17804-3 0  9997
2 61553  88.9810  93.7156 0008108  63.9282 296.2736 14.08665171 50362
QIANFAN-21              
1 61554U 24185C   25210.84378124  .00000594  00000+0  26024-3 0  9992
2 61554  88.9723  92.9162 0013173  84.6406 275.6288 14.22358297 50659
QIANFAN-22              
1 61555U 24185D   25210.80153357  .00000204  00000+0  16488-3 0  9999
2 61555  88.9795  94.1582 0008806  57.5520 302.6501 13.86235435 50108
QIANFAN-23              
1 61556U 24185E   25210.82783428  .00000494  00000+0  24291-3 0  9992
2 61556  88.9802  93.4072 0009767  44.8097 315.3878 14.16083821 50516
QIANFAN-24              
1 61557U 24185F   25210.82067350  .00000478  00000+0  20355-3 0  9991
2 61557  88.9783  93.0356 0011038  32.9680 327.2198 14.23560913 50681
